{
  "type": "FeatureCollection",
  "features": [
    {
      "type": "Feature",
      "properties": {
        "WADMKK": "Kota Bontang",
        "WADMPR": "Kalimantan Timur"
      },
      "geometry": {
        "type": "Polygon",
        "coordinates": [
          [
            [
              117.51664338300009,
              0.022446327000068
            ],
            [
              117.49906163800006,
              0.060104662000072
            ],
            [
              117.48839927300003,
              0.158090199000071
            ],
            [
              117.50454881500002,
              0.205680176000044
            ],
            [
              117.46916666900006,
              0.199166668000032
            ],
            [
              117.42471340200007,
              0.102074400000049
            ],
            [
              117.389977,
              0.063978
            ],
            [
              117.3883333330001,
              0.022500004000051
            ],
            [
              117.51664338300009,
              0.022446327000068
            ]
          ]
        ]
      }
    },
    {
      "type": "Feature",
      "properties": {
        "WADMKK": "Kutai Barat",
        "WADMPR": "Kalimantan Timur"
      },
      "geometry": {
        "type": "Polygon",
        "coordinates": [
          [
            [
              115.84193650200007,
              -1.096872849999954
            ],
            [
              115.92837522500008,
              -1.113356333999945
            ],
            [
              116.03835456200011,
              -1.119913255999961
            ],
            [
              116.100196277,
              -1.096609858999955
            ],
            [
              116.10390725600007,
              -1.137749635999967
            ],
            [
              116.13969759500003,
              -1.152497340999957
            ],
            [
              116.18150633800008,
              -1.117851481999935
            ],
            [
              116.21912230700002,
              -1.117851477999977
            ],
            [
              116.25407003400005,
              -1.052367210999932
            ],
            [
              116.32887597000001,
              -1.049550936999935
            ],
            [
              116.35826826000005,
              -0.993700738999962
            ],
            [
              116.43856022700004,
              -0.970842442999924
            ],
            [
              116.47359297300011,
              -0.941111053999975
            ],
            [
              116.5008610000001,
              -0.858139
            ],
            [
              116.49064695800007,
              -0.807069945999956
            ],
            [
              116.51676194100003,
              -0.748254729999928
            ],
            [
              116.455,
              -0.73505
            ],
            [
              116.44936804800011,
              -0.712179245999948
            ],
            [
              116.32,
              -0.534199
            ],
            [
              116.287,
              -0.52406
            ],
            [
              116.25056820300006,
              -0.485929964999968
            ],
            [
              116.2658462060001,
              -0.449683018999963
            ],
            [
              116.2413518830001,
              -0.402544017999958
            ],
            [
              116.32216666700003,
              -0.382472221999933
            ],
            [
              116.30638554100005,
              -0.32984546199998
            ],
            [
              116.27739402200007,
              -0.289036092999936
            ],
            [
              116.16495166800007,
              -0.21396797999995
            ],
            [
              116.16090571900008,
              -0.178283902999965
            ],
            [
              116.06550086100003,
              -0.167823547999944
            ],
            [
              116.03412308500003,
              -0.145663853999963
            ],
            [
              115.96079070000008,
              -0.057843964999961
            ],
            [
              115.94813613800011,
              -0.015469670999948
            ],
            [
              115.9893377620001,
              0.020679426000072
            ],
            [
              115.97917899800007,
              0.101014078000048
            ],
            [
              115.90519999800006,
              0.121932078000043
            ],
            [
              115.83085999800005,
              0.215247078000061
            ],
            [
              115.76368573200011,
              0.231816786000024
            ],
            [
              115.78179999800011,
              0.28445307800007
            ],
            [
              115.68291694400011,
              0.329538056000047
            ],
            [
              115.71696705400007,
              0.249573428000076
            ],
            [
              115.71384480400002,
              0.221399599000051
            ],
            [
              115.64974989500001,
              0.166460350000023
            ],
            [
              115.64308797300009,
              0.145516629000042
            ],
            [
              115.54809511300004,
              0.138851990000035
            ],
            [
              115.46108862000006,
              0.143078947000049
            ],
            [
              115.43720043700012,
              0.087530313000059
            ],
            [
              115.4342700310001,
              0.040197831000057
            ],
            [
              115.37445248000006,
              0.03116159800004
            ],
            [
              115.3116741770001,
              -0.056607003999943
            ],
            [
              115.29487766200009,
              -0.052359539999941
            ],
            [
              115.30963416800012,
              -0.117833214999962
            ],
            [
              115.25703882000005,
              -0.160684297999978
            ],
            [
              115.29814461300009,
              -0.207687119999946
            ],
            [
              115.2566421790001,
              -0.24065438599996
            ],
            [
              115.25384151100002,
              -0.300872217999938
            ],
            [
              115.22990598900003,
              -0.305966356999932
            ],
            [
              115.23364093400005,
              -0.363337567999963
            ],
            [
              115.27353154900004,
              -0.454815105999955
            ],
            [
              115.30710200200008,
              -0.486022468999977
            ],
            [
              115.29044285000009,
              -0.555449161999945
            ],
            [
              115.33674141800009,
              -0.543528456999979
            ],
            [
              115.38093334700011,
              -0.572243784999955
            ],
            [
              115.35651975200005,
              -0.613381472999947
            ],
            [
              115.37803083300003,
              -0.639799266999944
            ],
            [
              115.33379757300008,
              -0.683202000999927
            ],
            [
              115.34658628600005,
              -0.720445201999951
            ],
            [
              115.30079960800003,
              -0.74497949199997
            ],
            [
              115.2881514500001,
              -0.795070660999954
            ],
            [
              115.37644467900009,
              -0.875485606999973
            ],
            [
              115.48037230500006,
              -0.876293141999952
            ],
            [
              115.55445245600004,
              -0.859838869999976
            ],
            [
              115.63226641200004,
              -0.986212043999956
            ],
            [
              115.6792388,
              -1.008946560999959
            ],
            [
              115.71093787100006,
              -1.074963240999978
            ],
            [
              115.76643820700008,
              -1.137696479999931
            ],
            [
              115.81975024600001,
              -1.088581221999959
            ],
            [
              115.84193650200007,
              -1.096872849999954
            ]
          ]
        ]
      }
    },
    {
      "type": "Feature",
      "properties": {
        "WADMKK": "Kota Balikpapan",
        "WADMPR": "Kalimantan Timur"
      },
      "geometry": {
        "type": "Polygon",
        "coordinates": [
          [
            [
              116.74121540500005,
              -1.073347499999954
            ],
            [
              116.72892385000011,
              -1.101597000999959
            ],
            [
              116.76861326000005,
              -1.128998873999933
            ],
            [
              116.7885480870001,
              -1.173232458999962
            ],
            [
              116.78371148800011,
              -1.211513839999952
            ],
            [
              116.81632471700004,
              -1.237343578999969
            ],
            [
              116.81145185200012,
              -1.28186022899996
            ],
            [
              116.884349702,
              -1.276559420999945
            ],
            [
              116.93341724700008,
              -1.253210188999958
            ],
            [
              117.00018557600004,
              -1.200715961999947
            ],
            [
              117.02270169100007,
              -1.140653243999964
            ],
            [
              116.9335093840001,
              -1.110050324999975
            ],
            [
              116.903725,
              -1.064658
            ],
            [
              116.840171,
              -1.048286
            ],
            [
              116.85167194400003,
              -1.015818055999944
            ],
            [
              116.800587,
              -1.050594
            ],
            [
              116.74121540500005,
              -1.073347499999954
            ]
          ]
        ]
      }
    },
    {
      "type": "Feature",
      "properties": {
        "WADMKK": "Kutai Timur",
        "WADMPR": "Kalimantan Timur"
      },
      "geometry": {
        "type": "Polygon",
        "coordinates": [
          [
            [
              117.50454881500002,
              0.205680176000044
            ],
            [
              117.52807193600006,
              0.220337770000071
            ],
            [
              117.53336172800005,
              0.285996460000035
            ],
            [
              117.56664086800004,
              0.391320923000023
            ],
            [
              117.61213517300007,
              0.432435233000035
            ],
            [
              117.60112363700011,
              0.475866812000049
            ],
            [
              117.65813647200002,
              0.562607445000026
            ],
            [
              117.67353157100001,
              0.615598840000075
            ],
            [
              117.70726551100006,
              0.62296449400003
            ],
            [
              117.71131059400011,
              0.697253646000036
            ],
            [
              117.7520274640001,
              0.756385270000067
            ],
            [
              117.80225359400004,
              0.791156695000041
            ],
            [
              117.88773435100006,
              0.831124102000047
            ],
            [
              117.96846937100008,
              0.775291338000045
            ],
            [
              118.02486146900003,
              0.777418822000072
            ],
            [
              118.02761136400011,
              0.832932971000048
            ],
            [
              117.96882118600001,
              0.95887551800007
            ],
            [
              117.97356501700006,
              0.976379762000022
            ],
            [
              117.89712495000003,
              1.067327142000067
            ],
            [
              117.89454652600011,
              1.123146779000024
            ],
            [
              117.98431086000005,
              1.057498323000061
            ],
            [
              117.99144715900002,
              1.001117545000056
            ],
            [
              118.06458748900002,
              0.90351204600006
            ],
            [
              118.20318990300007,
              0.86890100100004
            ],
            [
              118.32197725200001,
              0.848798846000022
            ],
            [
              118.34163029600006,
              0.819183338000073
            ],
            [
              118.38542189600003,
              0.808868374000042
            ],
            [
              118.44278326300002,
              0.84435091000006
            ],
            [
              118.54640995200009,
              0.808447271000034
            ],
            [
              118.59332007400008,
              0.811805880000065
            ],
            [
              118.62203837200002,
              0.84488936300005
            ],
            [
              118.67749187000004,
              0.857051054000067
            ],
            [
              118.7093399040001,
              0.829172510000035
            ],
            [
              118.79511138600003,
              0.80169836400006
            ],
            [
              118.86475648100009,
              0.879589042000021
            ],
            [
              118.9642902700001,
              0.942617183000038
            ],
            [
              118.98875508600008,
              1.022491046000027
            ],
            [
              118.95251522,
              1.051535007000041
            ],
            [
              118.917486,
              1.017013
            ],
            [
              118.841085,
              0.984494
            ],
            [
              118.78714900000011,
              0.995775
            ],
            [
              118.750746,
              1.108554
            ],
            [
              118.699329,
              1.122177
            ],
            [
              118.613911,
              1.108616
            ],
            [
              118.5886210000001,
              1.125601
            ],
            [
              118.58178086100008,
              1.185001516000057
            ],
            [
              118.53773300000012,
              1.203647
            ],
            [
              118.51340566200008,
              1.280710250000027
            ],
            [
              118.416805,
              1.282984
            ],
            [
              118.380579,
              1.261754
            ],
            [
              118.342862,
              1.273158
            ],
            [
              118.31747,
              1.184086
            ],
            [
              118.22293800000011,
              1.186892
            ],
            [
              118.1876260030001,
              1.169936997000036
            ],
            [
              118.086337,
              1.159123003000047
            ],
            [
              118.0327030520001,
              1.165354550000075
            ],
            [
              117.99455523600011,
              1.201006714000073
            ],
            [
              117.98127676100012,
              1.258329308000043
            ],
            [
              117.94619899500003,
              1.274964671000021
            ],
            [
              117.87344499300002,
              1.360651240000038
            ],
            [
              117.8473360910001,
              1.411295220000056
            ],
            [
              117.86520266200012,
              1.43900799100004
            ],
            [
              117.83193625000001,
              1.494847280000045
            ],
            [
              117.83618501,
              1.534862475000068
            ],
            [
              117.81833026200002,
              1.601375497000049
            ],
            [
              117.79237941600002,
              1.61226926400002
            ],
            [
              117.77236933800009,
              1.658525986000029
            ],
            [
              117.72490366200009,
              1.695112827000059
            ],
            [
              117.66891840800008,
              1.67141981900005
            ],
            [
              117.64276814300001,
              1.592478981000056
            ],
            [
              117.57516594700007,
              1.610615861000042
            ],
            [
              117.53233036300003,
              1.562282470000071
            ],
            [
              117.50964047700006,
              1.509531308000021
            ],
            [
              117.48540042400009,
              1.504047979000063
            ],
            [
              117.45612457300001,
              1.556678527000031
            ],
            [
              117.3858052380001,
              1.584858297000039
            ],
            [
              117.37341290300003,
              1.513002680000056
            ],
            [
              117.33690926600002,
              1.49188228600002
            ],
            [
              117.33391466500007,
              1.451173447000031
            ],
            [
              117.27535620200001,
              1.421610907000058
            ],
            [
              117.2320785070001,
              1.380141809000065
            ],
            [
              117.15182848400002,
              1.382062673000064
            ],
            [
              117.08672150400002,
              1.412565895000057
            ],
            [
              117.03253375300005,
              1.422079721000046
            ],
            [
              116.97879683400004,
              1.471646841000052
            ],
            [
              116.98444902300002,
              1.520305786000051
            ],
            [
              116.90086743400002,
              1.611084389000041
            ],
            [
              116.87772793200008,
              1.67122953400002
            ],
            [
              116.8342883680001,
              1.691180168000074
            ],
            [
              116.77863101100002,
              1.692410392000056
            ],
            [
              116.65264214600006,
              1.649158251000074
            ],
            [
              116.60281226200004,
              1.692321927000023
            ],
            [
              116.54385358900004,
              1.695491411000035
            ],
            [
              116.46045400700007,
              1.724807130000045
            ],
            [
              116.48763407100012,
              1.781622385000048
            ],
            [
              116.41575458300008,
              1.82235504700003
            ],
            [
              116.38641230600001,
              1.78785588300002
            ],
            [
              116.3222194010001,
              1.825793592000025
            ],
            [
              116.2941311510001,
              1.866377603000046
            ],
            [
              116.24011863300007,
              1.861803221000059
            ],
            [
              116.18383400700009,
              1.840993026000035
            ],
            [
              116.161729,
              1.744093
            ],
            [
              116.13346800000011,
              1.668068
            ],
            [
              116.08888600000012,
              1.661598
            ],
            [
              116.03644,
              1.606101
            ],
            [
              116.041417,
              1.556644
            ],
            [
              116.007598,
              1.525922
            ],
            [
              116.13119990300004,
              1.478117449000024
            ],
            [
              116.15434778800011,
              1.45050440600005
            ],
            [
              116.14098102500009,
              1.413805526000033
            ],
            [
              116.15852743900007,
              1.362742777000051
            ],
            [
              116.14911864600003,
              1.297203669000055
            ],
            [
              116.1121947370001,
              1.270631189000028
            ],
            [
              116.08061671700011,
              1.211427797000056
            ],
            [
              116.03566737500012,
              1.175578151000025
            ],
            [
              116.03182153800003,
              1.128359225000054
            ],
            [
              116.07431299300004,
              1.024317991000032
            ],
            [
              116.0290246400001,
              0.97138779900007
            ],
            [
              116.0470720730001,
              0.919590345000074
            ],
            [
              116.032248632,
              0.852104864000069
            ],
            [
              115.99111212500009,
              0.80327926800004
            ],
            [
              116.0287299360001,
              0.774208520000059
            ],
            [
              116.07566732500004,
              0.809410532000072
            ],
            [
              116.12342622300002,
              0.754827421000073
            ],
            [
              116.22394130700002,
              0.710274972000036
            ],
            [
              116.24403785100003,
              0.629735045000075
            ],
            [
              116.27224671800002,
              0.585349208000025
            ],
            [
              116.26231743000005,
              0.529061628000022
            ],
            [
              116.28408900000011,
              0.472103
            ],
            [
              116.317327,
              0.460709
            ],
            [
              116.402211,
              0.356169
            ],
            [
              116.46852649900006,
              0.312619487000063
            ],
            [
              116.45946111100011,
              0.236
            ],
            [
              116.469219511,
              0.183895938000035
            ],
            [
              116.6524720000001,
              0.183889
            ],
            [
              116.776639,
              0.22725
            ],
            [
              116.826391564,
              0.235943684000063
            ],
            [
              116.87658662600006,
              0.36613886400005
            ],
            [
              116.9310369420001,
              0.41866013300006
            ],
            [
              116.94730674200002,
              0.521975076000047
            ],
            [
              116.98976967500005,
              0.579386741000064
            ],
            [
              117.02720677000002,
              0.536723301000052
            ],
            [
              117.0785535220001,
              0.44832953100007
            ],
            [
              117.10666930900004,
              0.438202463000039
            ],
            [
              117.14437169700011,
              0.370571403000042
            ],
            [
              117.21565244800001,
              0.339410125000029
            ],
            [
              117.17663588000005,
              0.274177910000049
            ],
            [
              117.18185472400012,
              0.205398928000022
            ],
            [
              117.1726277780001,
              0.150955556000042
            ],
            [
              117.20359664500006,
              0.12135719500003
            ],
            [
              117.2177796100001,
              0.07740250300003
            ],
            [
              117.26800273000003,
              0.038883650000059
            ],
            [
              117.3883333330001,
              0.022500004000051
            ],
            [
              117.389977,
              0.063978
            ],
            [
              117.42471340200007,
              0.102074400000049
            ],
            [
              117.46916666900006,
              0.199166668000032
            ],
            [
              117.50454881500002,
              0.205680176000044
            ]
          ]
        ]
      }
    },
    {
      "type": "Feature",
      "properties": {
        "WADMKK": "Berau",
        "WADMPR": "Kalimantan Timur"
      },
      "geometry": {
        "type": "MultiPolygon",
        "coordinates": [
          [
            [
              [
                118.95251522,
                1.051535007000041
              ],
              [
                118.8718809500001,
                1.067215648000058
              ],
              [
                118.78234123800007,
                1.128635941000027
              ],
              [
                118.76509452800008,
                1.199807167000074
              ],
              [
                118.71382190200006,
                1.248681296000029
              ],
              [
                118.60599630800004,
                1.322269124000059
              ],
              [
                118.58032772500007,
                1.354317035000065
              ],
              [
                118.42958482600011,
                1.40021297200002
              ],
              [
                118.40717795300009,
                1.486589944000059
              ],
              [
                118.24577318400009,
                1.56254473100006
              ],
              [
                118.11506100500003,
                1.652094030000058
              ],
              [
                118.0524983360001,
                1.734159649000048
              ],
              [
                118.04814926200004,
                1.783200869000041
              ],
              [
                117.92942771900005,
                1.805664703000048
              ],
              [
                117.8896610270001,
                1.872691914000029
              ],
              [
                117.8320953430001,
                1.91154468700006
              ],
              [
                117.81242464900004,
                1.989146318000053
              ],
              [
                117.77022906900004,
                2.012443094000048
              ],
              [
                117.71382932800009,
                2.082665675000044
              ],
              [
                117.72368061200007,
                2.136715020000054
              ],
              [
                117.68990488300005,
                2.180900970000039
              ],
              [
                117.81907412500004,
                2.20221374800002
              ],
              [
                117.89444867800012,
                2.195918093000046
              ],
              [
                117.93334129300001,
                2.181013724000024
              ],
              [
                118.01080137800011,
                2.199968458000058
              ],
              [
                118.05618489400001,
                2.230173312000034
              ],
              [
                118.09823507700003,
                2.284653907000063
              ],
              [
                118.05391797900006,
                2.36727508000007
              ],
              [
                117.98822973600011,
                2.435137715000053
              ],
              [
                117.91828257500003,
                2.393631250000055
              ],
              [
                117.863762,
                2.392894
              ],
              [
                117.82189,
                2.361321
              ],
              [
                117.8116030000001,
                2.326419
              ],
              [
                117.72125,
                2.346347
              ],
              [
                117.7086690000001,
                2.391478
              ],
              [
                117.61283,
                2.519918
              ],
              [
                117.572082,
                2.501545
              ],
              [
                117.4992830000001,
                2.521591
              ],
              [
                117.415333,
                2.501388
              ],
              [
                117.388076,
                2.559803
              ],
              [
                117.363846,
                2.538699
              ],
              [
                117.308197,
                2.533764
              ],
              [
                117.26988,
                2.482856
              ],
              [
                117.192158,
                2.495671
              ],
              [
                117.21483200000011,
                2.564697
              ],
              [
                117.171993,
                2.561944
              ],
              [
                117.133715,
                2.53617
              ],
              [
                117.04846,
                2.548018
              ],
              [
                117.015459,
                2.497686
              ],
              [
                117.023993,
                2.459825
              ],
              [
                116.969828,
                2.443833
              ],
              [
                116.960771,
                2.477037
              ],
              [
                116.924165,
                2.504934
              ],
              [
                116.877056,
                2.495821
              ],
              [
                116.844718,
                2.519538
              ],
              [
                116.795,
                2.509478
              ],
              [
                116.752967,
                2.474279
              ],
              [
                116.750938,
                2.435647
              ],
              [
                116.714363,
                2.391361
              ],
              [
                116.628578,
                2.393835
              ],
              [
                116.557217,
                2.456465
              ],
              [
                116.491206,
                2.445997
              ],
              [
                116.50417,
                2.348101
              ],
              [
                116.466667,
                2.325362
              ],
              [
                116.455049,
                2.276879
              ],
              [
                116.402132,
                2.297919
              ],
              [
                116.357409,
                2.294504
              ],
              [
                116.30444100000011,
                2.262251
              ],
              [
                116.28984,
                2.235626
              ],
              [
                116.349238,
                2.178116
              ],
              [
                116.28633700000012,
                2.102476
              ],
              [
                116.222828,
                2.097942
              ],
              [
                116.212609,
                2.062962
              ],
              [
                116.231058,
                2.012837
              ],
              [
                116.194458,
                1.985706
              ],
              [
                116.19913,
                1.950554
              ],
              [
                116.175485,
                1.902811
              ],
              [
                116.18383400700009,
                1.840993026000035
              ],
              [
                116.24011863300007,
                1.861803221000059
              ],
              [
                116.2941311510001,
                1.866377603000046
              ],
              [
                116.3222194010001,
                1.825793592000025
              ],
              [
                116.38641230600001,
                1.78785588300002
              ],
              [
                116.41575458300008,
                1.82235504700003
              ],
              [
                116.48763407100012,
                1.781622385000048
              ],
              [
                116.46045400700007,
                1.724807130000045
              ],
              [
                116.54385358900004,
                1.695491411000035
              ],
              [
                116.60281226200004,
                1.692321927000023
              ],
              [
                116.65264214600006,
                1.649158251000074
              ],
              [
                116.77863101100002,
                1.692410392000056
              ],
              [
                116.8342883680001,
                1.691180168000074
              ],
              [
                116.87772793200008,
                1.67122953400002
              ],
              [
                116.90086743400002,
                1.611084389000041
              ],
              [
                116.98444902300002,
                1.520305786000051
              ],
              [
                116.97879683400004,
                1.471646841000052
              ],
              [
                117.03253375300005,
                1.422079721000046
              ],
              [
                117.08672150400002,
                1.412565895000057
              ],
              [
                117.15182848400002,
                1.382062673000064
              ],
              [
                117.2320785070001,
                1.380141809000065
              ],
              [
                117.27535620200001,
                1.421610907000058
              ],
              [
                117.33391466500007,
                1.451173447000031
              ],
              [
                117.33690926600002,
                1.49188228600002
              ],
              [
                117.37341290300003,
                1.513002680000056
              ],
              [
                117.3858052380001,
                1.584858297000039
              ],
              [
                117.45612457300001,
                1.556678527000031
              ],
              [
                117.48540042400009,
                1.504047979000063
              ],
              [
                117.50964047700006,
                1.509531308000021
              ],
              [
                117.53233036300003,
                1.562282470000071
              ],
              [
                117.57516594700007,
                1.610615861000042
              ],
              [
                117.64276814300001,
                1.592478981000056
              ],
              [
                117.66891840800008,
                1.67141981900005
              ],
              [
                117.72490366200009,
                1.695112827000059
              ],
              [
                117.77236933800009,
                1.658525986000029
              ],
              [
                117.79237941600002,
                1.61226926400002
              ],
              [
                117.81833026200002,
                1.601375497000049
              ],
              [
                117.83618501,
                1.534862475000068
              ],
              [
                117.83193625000001,
                1.494847280000045
              ],
              [
                117.86520266200012,
                1.43900799100004
              ],
              [
                117.8473360910001,
                1.411295220000056
              ],
              [
                117.87344499300002,
                1.360651240000038
              ],
              [
                117.94619899500003,
                1.274964671000021
              ],
              [
                117.98127676100012,
                1.258329308000043
              ],
              [
                117.99455523600011,
                1.201006714000073
              ],
              [
                118.0327030520001,
                1.165354550000075
              ],
              [
                118.086337,
                1.159123003000047
              ],
              [
                118.1876260030001,
                1.169936997000036
              ],
              [
                118.22293800000011,
                1.186892
              ],
              [
                118.31747,
                1.184086
              ],
              [
                118.342862,
                1.273158
              ],
              [
                118.380579,
                1.261754
              ],
              [
                118.416805,
                1.282984
              ],
              [
                118.51340566200008,
                1.280710250000027
              ],
              [
                118.53773300000012,
                1.203647
              ],
              [
                118.58178086100008,
                1.185001516000057
              ],
              [
                118.5886210000001,
                1.125601
              ],
              [
                118.613911,
                1.108616
              ],
              [
                118.699329,
                1.122177
              ],
              [
                118.750746,
                1.108554
              ],
              [
                118.78714900000011,
                0.995775
              ],
              [
                118.841085,
                0.984494
              ],
              [
                118.917486,
                1.017013
              ],
              [
                118.95251522,
                1.051535007000041
              ]
            ]
          ],
          [
            [
              [
                117.89530679200004,
                2.079820735000055
              ],
              [
                117.90025139400007,
                2.125618296000027
              ],
              [
                117.86085181700003,
                2.144139816000063
              ],
              [
                117.82965793800008,
                2.115374989000031
              ],
              [
                117.89530679200004,
                2.079820735000055
              ]
            ]
          ],
          [
            [
              [
                117.80433659500011,
                2.160210797000047
              ],
              [
                117.72955397200008,
                2.168211021000047
              ],
              [
                117.73128091500007,
                2.089089753000053
              ],
              [
                117.80304252400003,
                2.121720496000023
              ],
              [
                117.80433659500011,
                2.160210797000047
              ]
            ]
          ],
          [
            [
              [
                117.8825336220001,
                2.154041480000046
              ],
              [
                117.80809999500002,
                2.169788384000071
              ],
              [
                117.82820849400002,
                2.117968105000045
              ],
              [
                117.8825336220001,
                2.154041480000046
              ]
            ]
          ]
        ]
      }
    },
    {
      "type": "Feature",
      "properties": {
        "WADMKK": "Kutai Kartanegara",
        "WADMPR": "Kalimantan Timur"
      },
      "geometry": {
        "type": "MultiPolygon",
        "coordinates": [
          [
            [
              [
                117.02270169100007,
                -1.140653243999964
              ],
              [
                117.06483519200003,
                -1.106442500999947
              ],
              [
                117.15753783900004,
                -0.96877083399994
              ],
              [
                117.20313741500001,
                -0.928065041999957
              ],
              [
                117.24878006200004,
                -0.907150355999931
              ],
              [
                117.25693851900007,
                -0.804008678999935
              ],
              [
                117.28171393000002,
                -0.790953985999977
              ],
              [
                117.30065485400007,
                -0.646203467999953
              ],
              [
                117.27983120400006,
                -0.597913863999963
              ],
              [
                117.22817707900003,
                -0.639038938999931
              ],
              [
                117.22573470400005,
                -0.66204866399994
              ],
              [
                117.1622209950001,
                -0.716540984999938
              ],
              [
                117.1305563630001,
                -0.669116534999944
              ],
              [
                117.14535267800011,
                -0.620721901999957
              ],
              [
                117.0777202810001,
                -0.589655821999941
              ],
              [
                117.0541660020001,
                -0.550649957999951
              ],
              [
                117.07045048100008,
                -0.431368013999929
              ],
              [
                117.12780800500002,
                -0.408436002999963
              ],
              [
                117.14292200000011,
                -0.320182
              ],
              [
                117.206287,
                -0.323476
              ],
              [
                117.23899498500009,
                -0.357384979999949
              ],
              [
                117.29786296600003,
                -0.37652600399997
              ],
              [
                117.27001873600011,
                -0.421896236999942
              ],
              [
                117.25807904800001,
                -0.514438715999972
              ],
              [
                117.27508150300002,
                -0.583519588999934
              ],
              [
                117.3380023520001,
                -0.57967502799994
              ],
              [
                117.41232502900004,
                -0.539204278999932
              ],
              [
                117.45430947400007,
                -0.447176935999948
              ],
              [
                117.42842534200008,
                -0.39856167399995
              ],
              [
                117.45780344400009,
                -0.387120692999929
              ],
              [
                117.4434097840001,
                -0.298834716999977
              ],
              [
                117.41725962100008,
                -0.246702728999935
              ],
              [
                117.48172919800004,
                -0.068950576999953
              ],
              [
                117.51772447400003,
                -0.031509528999948
              ],
              [
                117.51664338300009,
                0.022446327000068
              ],
              [
                117.3883333330001,
                0.022500004000051
              ],
              [
                117.26800273000003,
                0.038883650000059
              ],
              [
                117.2177796100001,
                0.07740250300003
              ],
              [
                117.20359664500006,
                0.12135719500003
              ],
              [
                117.1726277780001,
                0.150955556000042
              ],
              [
                117.18185472400012,
                0.205398928000022
              ],
              [
                117.17663588000005,
                0.274177910000049
              ],
              [
                117.21565244800001,
                0.339410125000029
              ],
              [
                117.14437169700011,
                0.370571403000042
              ],
              [
                117.10666930900004,
                0.438202463000039
              ],
              [
                117.0785535220001,
                0.44832953100007
              ],
              [
                117.02720677000002,
                0.536723301000052
              ],
              [
                116.98976967500005,
                0.579386741000064
              ],
              [
                116.94730674200002,
                0.521975076000047
              ],
              [
                116.9310369420001,
                0.41866013300006
              ],
              [
                116.87658662600006,
                0.36613886400005
              ],
              [
                116.826391564,
                0.235943684000063
              ],
              [
                116.776639,
                0.22725
              ],
              [
                116.6524720000001,
                0.183889
              ],
              [
                116.469219511,
                0.183895938000035
              ],
              [
                116.45946111100011,
                0.236
              ],
              [
                116.46852649900006,
                0.312619487000063
              ],
              [
                116.402211,
                0.356169
              ],
              [
                116.317327,
                0.460709
              ],
              [
                116.28408900000011,
                0.472103
              ],
              [
                116.26231743000005,
                0.529061628000022
              ],
              [
                116.27224671800002,
                0.585349208000025
              ],
              [
                116.24403785100003,
                0.629735045000075
              ],
              [
                116.22394130700002,
                0.710274972000036
              ],
              [
                116.12342622300002,
                0.754827421000073
              ],
              [
                116.07566732500004,
                0.809410532000072
              ],
              [
                116.0287299360001,
                0.774208520000059
              ],
              [
                115.99111212500009,
                0.80327926800004
              ],
              [
                116.032248632,
                0.852104864000069
              ],
              [
                116.0470720730001,
                0.919590345000074
              ],
              [
                116.0290246400001,
                0.97138779900007
              ],
              [
                116.07431299300004,
                1.024317991000032
              ],
              [
                116.03182153800003,
                1.128359225000054
              ],
              [
                116.03566737500012,
                1.175578151000025
              ],
              [
                116.08061671700011,
                1.211427797000056
              ],
              [
                116.1121947370001,
                1.270631189000028
              ],
              [
                116.14911864600003,
                1.297203669000055
              ],
              [
                116.15852743900007,
                1.362742777000051
              ],
              [
                116.14098102500009,
                1.413805526000033
              ],
              [
                116.15434778800011,
                1.45050440600005
              ],
              [
                116.13119990300004,
                1.478117449000024
              ],
              [
                116.007598,
                1.525922
              ],
              [
                115.964773,
                1.524124
              ],
              [
                115.955079,
                1.489363
              ],
              [
                115.9084620000001,
                1.473466
              ],
              [
                115.854311,
                1.434041
              ],
              [
                115.856882,
                1.401414
              ],
              [
                115.807025,
                1.324618
              ],
              [
                115.773394,
                1.307682
              ],
              [
                115.764477,
                1.259065
              ],
              [
                115.69697,
                1.26626
              ],
              [
                115.6858318730001,
                1.281960420000075
              ],
              [
                115.594796,
                1.28222
              ],
              [
                115.487459,
                1.252468
              ],
              [
                115.427406,
                1.222817
              ],
              [
                115.40494300000012,
                1.173353
              ],
              [
                115.41810217800003,
                1.151661527000044
              ],
              [
                115.359316,
                1.062923
              ],
              [
                115.3004820000001,
                1.060629
              ],
              [
                115.256164,
                1.015104
              ],
              [
                115.24165422200008,
                0.952553822000027
              ],
              [
                115.303324,
                0.888337
              ],
              [
                115.277816,
                0.836496
              ],
              [
                115.429833,
                0.774333
              ],
              [
                115.492045,
                0.765556
              ],
              [
                115.54701000000011,
                0.720616
              ],
              [
                115.58543,
                0.65152
              ],
              [
                115.6729160000001,
                0.57969
              ],
              [
                115.754394,
                0.484817
              ],
              [
                115.76212479700007,
                0.412631976000057
              ],
              [
                115.684516,
                0.359362
              ],
              [
                115.68291694400011,
                0.329538056000047
              ],
              [
                115.78179999800011,
                0.28445307800007
              ],
              [
                115.76368573200011,
                0.231816786000024
              ],
              [
                115.83085999800005,
                0.215247078000061
              ],
              [
                115.90519999800006,
                0.121932078000043
              ],
              [
                115.97917899800007,
                0.101014078000048
              ],
              [
                115.9893377620001,
                0.020679426000072
              ],
              [
                115.94813613800011,
                -0.015469670999948
              ],
              [
                115.96079070000008,
                -0.057843964999961
              ],
              [
                116.03412308500003,
                -0.145663853999963
              ],
              [
                116.06550086100003,
                -0.167823547999944
              ],
              [
                116.16090571900008,
                -0.178283902999965
              ],
              [
                116.16495166800007,
                -0.21396797999995
              ],
              [
                116.27739402200007,
                -0.289036092999936
              ],
              [
                116.30638554100005,
                -0.32984546199998
              ],
              [
                116.32216666700003,
                -0.382472221999933
              ],
              [
                116.2413518830001,
                -0.402544017999958
              ],
              [
                116.2658462060001,
                -0.449683018999963
              ],
              [
                116.25056820300006,
                -0.485929964999968
              ],
              [
                116.287,
                -0.52406
              ],
              [
                116.32,
                -0.534199
              ],
              [
                116.44936804800011,
                -0.712179245999948
              ],
              [
                116.455,
                -0.73505
              ],
              [
                116.51676194100003,
                -0.748254729999928
              ],
              [
                116.49064695800007,
                -0.807069945999956
              ],
              [
                116.5008610000001,
                -0.858139
              ],
              [
                116.515024,
                -0.826261357999954
              ],
              [
                116.564107,
                -0.81265635699998
              ],
              [
                116.56833055700008,
                -0.859895632999951
              ],
              [
                116.5995,
                -0.882437356999958
              ],
              [
                116.641464,
                -0.862272356999938
              ],
              [
                116.651227,
                -0.825184356999955
              ],
              [
                116.68993100000012,
                -0.79777035799998
              ],
              [
                116.77247445000012,
                -0.825756386999956
              ],
              [
                116.82516625700009,
                -0.809755285999927
              ],
              [
                116.86573791500007,
                -0.833611726999948
              ],
              [
                116.90405697800009,
                -0.895330096999942
              ],
              [
                116.94516138100005,
                -0.879597752999928
              ],
              [
                116.93111061400009,
                -0.951561285999958
              ],
              [
                116.85167194400003,
                -1.015818055999944
              ],
              [
                116.840171,
                -1.048286
              ],
              [
                116.903725,
                -1.064658
              ],
              [
                116.9335093840001,
                -1.110050324999975
              ],
              [
                117.02270169100007,
                -1.140653243999964
              ]
            ]
          ],
          [
            [
              [
                117.34033971400004,
                -0.781352667999954
              ],
              [
                117.34774882600004,
                -0.826189340999974
              ],
              [
                117.31097187700004,
                -0.856284763999952
              ],
              [
                117.32905578100008,
                -0.90493046399996
              ],
              [
                117.35789484800011,
                -0.897106796999935
              ],
              [
                117.37331150600005,
                -0.840021858999933
              ],
              [
                117.34033971400004,
                -0.781352667999954
              ]
            ]
          ],
          [
            [
              [
                117.31188744600001,
                -0.578238461999945
              ],
              [
                117.325798383,
                -0.629967574999966
              ],
              [
                117.36762694700008,
                -0.643556822999926
              ],
              [
                117.3710932680001,
                -0.600113175999979
              ],
              [
                117.31188744600001,
                -0.578238461999945
              ]
            ]
          ],
          [
            [
              [
                117.46218945100009,
                -0.702735674999929
              ],
              [
                117.44605935600009,
                -0.741042081999979
              ],
              [
                117.49640629800001,
                -0.748022670999944
              ],
              [
                117.51501532500004,
                -0.772760921999975
              ],
              [
                117.59805912400009,
                -0.785301706999974
              ],
              [
                117.61680436200004,
                -0.758502903999954
              ],
              [
                117.55593010200005,
                -0.727239889999964
              ],
              [
                117.51517351300004,
                -0.736320451999973
              ],
              [
                117.46218945100009,
                -0.702735674999929
              ]
            ]
          ],
          [
            [
              [
                117.37509374100011,
                -0.71727501099997
              ],
              [
                117.31978305300004,
                -0.685291795999944
              ],
              [
                117.33339940600001,
                -0.755889271999933
              ],
              [
                117.40311534600005,
                -0.862705036999955
              ],
              [
                117.41123638300007,
                -0.838377527999967
              ],
              [
                117.37230205700007,
                -0.751666359999945
              ],
              [
                117.37509374100011,
                -0.71727501099997
              ]
            ]
          ],
          [
            [
              [
                117.50454329200011,
                -0.545620293999946
              ],
              [
                117.51809004300003,
                -0.602837747999956
              ],
              [
                117.57807884700003,
                -0.577554302999943
              ],
              [
                117.58582563900006,
                -0.522247805999939
              ],
              [
                117.54879613900005,
                -0.505376160999958
              ],
              [
                117.50454329200011,
                -0.545620293999946
              ]
            ]
          ],
          [
            [
              [
                117.475273334,
                -0.556658255999935
              ],
              [
                117.38605507600005,
                -0.575717310999948
              ],
              [
                117.44878556000003,
                -0.608914603999949
              ],
              [
                117.475273334,
                -0.556658255999935
              ]
            ]
          ],
          [
            [
              [
                117.62485376200004,
                -0.420271157999935
              ],
              [
                117.59121554100011,
                -0.412068198999975
              ],
              [
                117.4970943830001,
                -0.472166495999943
              ],
              [
                117.50974536000001,
                -0.506537823999963
              ],
              [
                117.57496345100003,
                -0.487596431999975
              ],
              [
                117.62043468900004,
                -0.461274401999958
              ],
              [
                117.62485376200004,
                -0.420271157999935
              ]
            ]
          ],
          [
            [
              [
                117.49967360900007,
                -0.423645035999925
              ],
              [
                117.53965540900003,
                -0.376997617999962
              ],
              [
                117.5178979430001,
                -0.350070116999973
              ],
              [
                117.4693633280001,
                -0.418399477999969
              ],
              [
                117.49967360900007,
                -0.423645035999925
              ]
            ]
          ]
        ]
      }
    },
    {
      "type": "Feature",
      "properties": {
        "WADMKK": "Mahakam Ulu",
        "WADMPR": "Kalimantan Timur"
      },
      "geometry": {
        "type": "Polygon",
        "coordinates": [
          [
            [
              115.01302620400008,
              -0.266186822999941
            ],
            [
              115.06684178600005,
              -0.148755156999925
            ],
            [
              115.14986868800008,
              -0.139096479999978
            ],
            [
              115.16598959200007,
              -0.087178789999939
            ],
            [
              115.29487766200009,
              -0.052359539999941
            ],
            [
              115.3116741770001,
              -0.056607003999943
            ],
            [
              115.37445248000006,
              0.03116159800004
            ],
            [
              115.4342700310001,
              0.040197831000057
            ],
            [
              115.43720043700012,
              0.087530313000059
            ],
            [
              115.46108862000006,
              0.143078947000049
            ],
            [
              115.54809511300004,
              0.138851990000035
            ],
            [
              115.64308797300009,
              0.145516629000042
            ],
            [
              115.64974989500001,
              0.166460350000023
            ],
            [
              115.71384480400002,
              0.221399599000051
            ],
            [
              115.71696705400007,
              0.249573428000076
            ],
            [
              115.68291694400011,
              0.329538056000047
            ],
            [
              115.684516,
              0.359362
            ],
            [
              115.76212479700007,
              0.412631976000057
            ],
            [
              115.754394,
              0.484817
            ],
            [
              115.6729160000001,
              0.57969
            ],
            [
              115.58543,
              0.65152
            ],
            [
              115.54701000000011,
              0.720616
            ],
            [
              115.492045,
              0.765556
            ],
            [
              115.429833,
              0.774333
            ],
            [
              115.277816,
              0.836496
            ],
            [
              115.303324,
              0.888337
            ],
            [
              115.24165422200008,
              0.952553822000027
            ],
            [
              115.256164,
              1.015104
            ],
            [
              115.3004820000001,
              1.060629
            ],
            [
              115.359316,
              1.062923
            ],
            [
              115.41810217800003,
              1.151661527000044
            ],
            [
              115.3806730440001,
              1.117885930000057
            ],
            [
              115.2781490970001,
              1.136434391000023
            ],
            [
              115.242491,
              1.180949
            ],
            [
              115.182017,
              1.196749
            ],
            [
              115.122107,
              1.186534
            ],
            [
              115.09369793500002,
              1.211958245000062
            ],
            [
              115.099595,
              1.244315
            ],
            [
              115.04519423500005,
              1.267450125000039
            ],
            [
              115.01690469700009,
              1.348034830000074
            ],
            [
              114.95392510200008,
              1.373170861000062
            ],
            [
              114.9018164470001,
              1.419007823000072
            ],
            [
              114.87874295600011,
              1.417924542000037
            ],
            [
              114.79484642200009,
              1.376198324000029
            ],
            [
              114.7597673460001,
              1.326053820000027
            ],
            [
              114.722481,
              1.313327
            ],
            [
              114.690105,
              1.359894
            ],
            [
              114.61680400000012,
              1.363242
            ],
            [
              114.572313,
              1.389394
            ],
            [
              114.565164,
              1.426223380000067
            ],
            [
              114.56301193400009,
              1.431778847000032
            ],
            [
              114.56164743300008,
              1.433781454000041
            ],
            [
              114.4745489820001,
              1.473996777000025
            ],
            [
              114.41428339100003,
              1.511445236000043
            ],
            [
              114.33664587800001,
              1.485842383000033
            ],
            [
              114.30061350800008,
              1.458695628000044
            ],
            [
              114.23830488400006,
              1.448275741000032
            ],
            [
              114.20552258300006,
              1.410228323000069
            ],
            [
              114.15500427300003,
              1.374380061000068
            ],
            [
              114.16307382700006,
              1.309070093000059
            ],
            [
              114.13565140100002,
              1.219031133000044
            ],
            [
              114.12791395500005,
              1.156723514000021
            ],
            [
              113.98515252600009,
              1.136842045000037
            ],
            [
              113.9393372180001,
              1.058848587000057
            ],
            [
              113.90142730500008,
              1.059836603000065
            ],
            [
              113.89288657700001,
              1.020105256000022
            ],
            [
              113.91196608700011,
              0.968425940000031
            ],
            [
              113.87204674200007,
              0.915257498000074
            ],
            [
              113.87680414200008,
              0.87958300400004
            ],
            [
              113.92648799100004,
              0.841405264000059
            ],
            [
              113.8738834620001,
              0.775914219000072
            ],
            [
              113.89482589200009,
              0.726039229000037
            ],
            [
              113.83934362100001,
              0.695432022000034
            ],
            [
              113.84183805600003,
              0.657743889000074
            ],
            [
              113.92129077100003,
              0.644001619000051
            ],
            [
              114.12308666600006,
              0.695364416000075
            ],
            [
              114.15800063400002,
              0.677743381000028
            ],
            [
              114.20308027800002,
              0.540071473000069
            ],
            [
              114.24384337200001,
              0.522580049000055
            ],
            [
              114.29193927900008,
              0.536603462000073
            ],
            [
              114.36410362600009,
              0.530236019000029
            ],
            [
              114.37681148400009,
              0.559631679000063
            ],
            [
              114.43030750000003,
              0.541624444000036
            ],
            [
              114.48895058300002,
              0.57002621700002
            ],
            [
              114.52445777700007,
              0.562794834000044
            ],
            [
              114.54059761500002,
              0.620359333000067
            ],
            [
              114.59787887000005,
              0.631781367000031
            ],
            [
              114.65198346900002,
              0.674715984000045
            ],
            [
              114.65843743700009,
              0.698542130000021
            ],
            [
              114.71612359900007,
              0.701244691000056
            ],
            [
              114.7609780570001,
              0.731700344000046
            ],
            [
              114.8318854260001,
              0.754601750000063
            ],
            [
              114.87477224600002,
              0.74243399900007
            ],
            [
              114.94330425500004,
              0.772891037000022
            ],
            [
              114.9855583310001,
              0.73165741400004
            ],
            [
              115.01353702200004,
              0.599344750000057
            ],
            [
              115.09162122000009,
              0.480377076000025
            ],
            [
              115.13738753200005,
              0.425491371000021
            ],
            [
              115.12448217200006,
              0.36998823700003
            ],
            [
              115.04014524900003,
              0.298546670000064
            ],
            [
              115.022874021,
              0.330350551000038
            ],
            [
              114.94956144600008,
              0.332389860000035
            ],
            [
              114.90259394500004,
              0.317721352000035
            ],
            [
              114.85767007100003,
              0.270375736000062
            ],
            [
              114.82975087300008,
              0.191611268000031
            ],
            [
              114.76245033500004,
              0.146373076000032
            ],
            [
              114.77186227000004,
              0.121879068000055
            ],
            [
              114.70891893300006,
              0.073980987000027
            ],
            [
              114.71834903900003,
              0.053497089000075
            ],
            [
              114.79526688500005,
              0.011403135000023
            ],
            [
              114.82381055100007,
              -0.036197903999948
            ],
            [
              114.8924030820001,
              -0.025879846999942
            ],
            [
              114.92102717900002,
              -0.100334171999975
            ],
            [
              114.92902998700004,
              -0.165367376999939
            ],
            [
              114.92041307400007,
              -0.23337718199997
            ],
            [
              114.98105635400009,
              -0.27548358599995
            ],
            [
              115.01302620400008,
              -0.266186822999941
            ]
          ]
        ]
      }
    },
    {
      "type": "Feature",
      "properties": {
        "WADMKK": "Paser",
        "WADMPR": "Kalimantan Timur"
      },
      "geometry": {
        "type": "MultiPolygon",
        "coordinates": [
          [
            [
              [
                115.83549055600008,
                -2.389861388999975
              ],
              [
                115.88659727100003,
                -2.362237708999942
              ],
              [
                115.89356638100003,
                -2.334556665999969
              ],
              [
                116.03554928900007,
                -2.309061113999974
              ],
              [
                116.04272316000004,
                -2.32585774699993
              ],
              [
                116.11337695600002,
                -2.337613146999956
              ],
              [
                116.16248693500006,
                -2.306570305999969
              ],
              [
                116.23582516700003,
                -2.309114116999979
              ],
              [
                116.26790149100009,
                -2.338344725999946
              ],
              [
                116.3276577900001,
                -2.340760080999928
              ],
              [
                116.41019,
                -2.37214
              ],
              [
                116.55527674300004,
                -2.408836408999946
              ],
              [
                116.57672752300005,
                -2.332819980999943
              ],
              [
                116.59542077900005,
                -2.202899262999949
              ],
              [
                116.51439537300007,
                -2.165646024999944
              ],
              [
                116.4004852270001,
                -2.214364001999968
              ],
              [
                116.38506185800009,
                -2.190511392999952
              ],
              [
                116.39342247200011,
                -2.082807338999942
              ],
              [
                116.45765126300012,
                -2.062179790999949
              ],
              [
                116.45791776300007,
                -1.929025152999941
              ],
              [
                116.4265790610001,
                -1.852200889999949
              ],
              [
                116.44661320300008,
                -1.827594758999965
              ],
              [
                116.45026396900005,
                -1.773014461999935
              ],
              [
                116.375553652,
                -1.762435377999964
              ],
              [
                116.26338591000001,
                -1.810637864999933
              ],
              [
                116.24620913600006,
                -1.779294017999973
              ],
              [
                116.30884588800006,
                -1.723968793999973
              ],
              [
                116.31292040500011,
                -1.704235220999976
              ],
              [
                116.38026832700007,
                -1.685317460999954
              ],
              [
                116.44950311500008,
                -1.648488547999932
              ],
              [
                116.49217189900003,
                -1.642785775999926
              ],
              [
                116.55763772000012,
                -1.601939152999933
              ],
              [
                116.552377395,
                -1.561224288999938
              ],
              [
                116.48492073200009,
                -1.568392373999927
              ],
              [
                116.47814998400008,
                -1.59578335499998
              ],
              [
                116.369572919,
                -1.560317032999933
              ],
              [
                116.37907659100006,
                -1.498701436999966
              ],
              [
                116.36426431900009,
                -1.471461936999958
              ],
              [
                116.3557749360001,
                -1.391749603999926
              ],
              [
                116.33548296400011,
                -1.333772544999931
              ],
              [
                116.34433210300006,
                -1.245280388999959
              ],
              [
                116.377929687,
                -1.199279785999977
              ],
              [
                116.3708797700001,
                -1.144399160999967
              ],
              [
                116.454062485,
                -1.043518010999946
              ],
              [
                116.43856022700004,
                -0.970842442999924
              ],
              [
                116.35826826000005,
                -0.993700738999962
              ],
              [
                116.32887597000001,
                -1.049550936999935
              ],
              [
                116.25407003400005,
                -1.052367210999932
              ],
              [
                116.21912230700002,
                -1.117851477999977
              ],
              [
                116.18150633800008,
                -1.117851481999935
              ],
              [
                116.13969759500003,
                -1.152497340999957
              ],
              [
                116.10390725600007,
                -1.137749635999967
              ],
              [
                116.100196277,
                -1.096609858999955
              ],
              [
                116.03835456200011,
                -1.119913255999961
              ],
              [
                115.92837522500008,
                -1.113356333999945
              ],
              [
                115.84193650200007,
                -1.096872849999954
              ],
              [
                115.84935883000003,
                -1.171768564999979
              ],
              [
                115.81917772200006,
                -1.183425120999971
              ],
              [
                115.77721795800005,
                -1.231157128999939
              ],
              [
                115.75875873500001,
                -1.31257953599993
              ],
              [
                115.68803512900001,
                -1.44676011599995
              ],
              [
                115.63525946400011,
                -1.463823220999927
              ],
              [
                115.61889672200004,
                -1.487855210999953
              ],
              [
                115.63613951500008,
                -1.603781013999935
              ],
              [
                115.66997560300001,
                -1.630160251999939
              ],
              [
                115.66523650700003,
                -1.706666492999943
              ],
              [
                115.70709311300004,
                -1.733179096999947
              ],
              [
                115.68699379800012,
                -1.758427111999936
              ],
              [
                115.72800719700001,
                -1.796962768999947
              ],
              [
                115.72327793000011,
                -1.921451722999961
              ],
              [
                115.70046301000002,
                -1.97094504599994
              ],
              [
                115.71899577300007,
                -1.997398828999962
              ],
              [
                115.69488888900003,
                -2.040527777999955
              ],
              [
                115.72101989500004,
                -2.062424461999967
              ],
              [
                115.80758055600006,
                -2.06135833299993
              ],
              [
                115.7857081190001,
                -2.217041810999945
              ],
              [
                115.81103320000011,
                -2.237556051999945
              ],
              [
                115.83284863600011,
                -2.297498702999974
              ],
              [
                115.83549055600008,
                -2.389861388999975
              ]
            ]
          ],
          [
            [
              [
                116.51729530800003,
                -2.135674836999954
              ],
              [
                116.5021734180001,
                -2.10927133399997
              ],
              [
                116.46107342000005,
                -2.132691399999942
              ],
              [
                116.39312187100006,
                -2.126869800999941
              ],
              [
                116.38646363400005,
                -2.18549098699998
              ],
              [
                116.4026885190001,
                -2.204992166999943
              ],
              [
                116.503382955,
                -2.160863774999939
              ],
              [
                116.51729530800003,
                -2.135674836999954
              ]
            ]
          ]
        ]
      }
    },
    {
      "type": "Feature",
      "properties": {
        "WADMKK": "Penajam Paser Utara",
        "WADMPR": "Kalimantan Timur"
      },
      "geometry": {
        "type": "Polygon",
        "coordinates": [
          [
            [
              116.43856022700004,
              -0.970842442999924
            ],
            [
              116.454062485,
              -1.043518010999946
            ],
            [
              116.3708797700001,
              -1.144399160999967
            ],
            [
              116.377929687,
              -1.199279785999977
            ],
            [
              116.34433210300006,
              -1.245280388999959
            ],
            [
              116.33548296400011,
              -1.333772544999931
            ],
            [
              116.3557749360001,
              -1.391749603999926
            ],
            [
              116.36426431900009,
              -1.471461936999958
            ],
            [
              116.37907659100006,
              -1.498701436999966
            ],
            [
              116.369572919,
              -1.560317032999933
            ],
            [
              116.47814998400008,
              -1.59578335499998
            ],
            [
              116.48492073200009,
              -1.568392373999927
            ],
            [
              116.552377395,
              -1.561224288999938
            ],
            [
              116.52996390400006,
              -1.508827911999958
            ],
            [
              116.5399102670001,
              -1.464656125999966
            ],
            [
              116.60970074000011,
              -1.41559463699997
            ],
            [
              116.76212976900001,
              -1.362090398999953
            ],
            [
              116.76065957500009,
              -1.290576908999981
            ],
            [
              116.77809881200005,
              -1.244184468999947
            ],
            [
              116.74184239400006,
              -1.218076658999962
            ],
            [
              116.7668855390001,
              -1.187065274999952
            ],
            [
              116.70155295500001,
              -1.11943896799994
            ],
            [
              116.74121540500005,
              -1.073347499999954
            ],
            [
              116.800587,
              -1.050594
            ],
            [
              116.85167194400003,
              -1.015818055999944
            ],
            [
              116.93111061400009,
              -0.951561285999958
            ],
            [
              116.94516138100005,
              -0.879597752999928
            ],
            [
              116.90405697800009,
              -0.895330096999942
            ],
            [
              116.86573791500007,
              -0.833611726999948
            ],
            [
              116.82516625700009,
              -0.809755285999927
            ],
            [
              116.77247445000012,
              -0.825756386999956
            ],
            [
              116.68993100000012,
              -0.79777035799998
            ],
            [
              116.651227,
              -0.825184356999955
            ],
            [
              116.641464,
              -0.862272356999938
            ],
            [
              116.5995,
              -0.882437356999958
            ],
            [
              116.56833055700008,
              -0.859895632999951
            ],
            [
              116.564107,
              -0.81265635699998
            ],
            [
              116.515024,
              -0.826261357999954
            ],
            [
              116.5008610000001,
              -0.858139
            ],
            [
              116.47359297300011,
              -0.941111053999975
            ],
            [
              116.43856022700004,
              -0.970842442999924
            ]
          ]
        ]
      }
    },
    {
      "type": "Feature",
      "properties": {
        "WADMKK": "Kota Samarinda",
        "WADMPR": "Kalimantan Timur"
      },
      "geometry": {
        "type": "Polygon",
        "coordinates": [
          [
            [
              117.27983120400006,
              -0.597913863999963
            ],
            [
              117.27508150300002,
              -0.583519588999934
            ],
            [
              117.25807904800001,
              -0.514438715999972
            ],
            [
              117.27001873600011,
              -0.421896236999942
            ],
            [
              117.29786296600003,
              -0.37652600399997
            ],
            [
              117.23899498500009,
              -0.357384979999949
            ],
            [
              117.206287,
              -0.323476
            ],
            [
              117.14292200000011,
              -0.320182
            ],
            [
              117.12780800500002,
              -0.408436002999963
            ],
            [
              117.07045048100008,
              -0.431368013999929
            ],
            [
              117.0541660020001,
              -0.550649957999951
            ],
            [
              117.0777202810001,
              -0.589655821999941
            ],
            [
              117.14535267800011,
              -0.620721901999957
            ],
            [
              117.1305563630001,
              -0.669116534999944
            ],
            [
              117.1622209950001,
              -0.716540984999938
            ],
            [
              117.22573470400005,
              -0.66204866399994
            ],
            [
              117.22817707900003,
              -0.639038938999931
            ],
            [
              117.27983120400006,
              -0.597913863999963
            ]
          ]
        ]
      }
    }
  ]
}
